1 39451U 13067A   20292.43255675  .00000417  00000-0  16813-4 0  9996
2 39451  87.7531 242.9641 0004099  94.3033 265.8681 15.21803804383234
1 39451U 13067A   20292.56407087 +.00000412 +00000-0 +16579-4 0  9990
2 39451 087.7531 242.9247 0004106 094.1477 266.0238 15.21803841368689
1 39451U 13067A   20292.89285584 +.00000417 +00000-0 +16781-4 0  9992
2 39451 087.7532 242.8264 0004108 093.7796 266.3919 15.21804179368739
1 39451U 13067A   20293.22164089 +.00000422 +00000-0 +17005-4 0  9992
2 39451 087.7533 242.7280 0004112 093.4637 266.7079 15.21804440368780
1 39451U 13067A   20293.87921065 +.00000427 +00000-0 +17236-4 0  9999
2 39451 087.7534 242.5312 0004122 092.6315 267.5402 15.21805012368886
1 39451U 13067A   20294.53678039 +.00000451 +00000-0 +18282-4 0  9992
2 39451 087.7535 242.3344 0004124 091.8031 268.3686 15.21805558368987
1 39451U 13067A   20294.93132206 +.00000462 +00000-0 +18770-4 0  9991
2 39451 087.7536 242.2164 0004122 091.3164 268.8554 15.21805891383613
1 39451U 13067A   20295.19434993 +.00000492 +00000-0 +20096-4 0  9995
2 39451 087.7537 242.1377 0004124 091.0605 269.1113 15.21806164369082
1 39451U 13067A   20296.18070386  .00000543  00000-0  22352-4 0  9991
2 39451  87.7539 241.8425 0004127  89.7735 270.3984 15.21807033383807
1 39451U 13067A   20296.57524523 +.00000562 +00000-0 +23215-4 0  9991
2 39451 087.7540 241.7245 0004131 089.1977 270.9742 15.21807429369299
1 39451U 13067A   20296.90402954 +.00000579 +00000-0 +23926-4 0  9998
2 39451 087.7540 241.6261 0004131 088.7207 271.4511 15.21807823369341
1 39451U 13067A   20297.56159825 +.00000576 +00000-0 +23808-4 0  9993
2 39451 087.7541 241.4294 0004132 087.9473 272.2246 15.21808327369448
1 39451U 13067A   20297.89038226 +.00000578 +00000-0 +23912-4 0  9998
2 39451 087.7542 241.3310 0004131 087.5077 272.6641 15.21808727369494
1 39451U 13067A   20298.21916624 +.00000630 +00000-0 +26210-4 0  9995
2 39451 087.7543 241.2326 0004124 087.1683 273.0034 15.21809340369541
1 39451U 13067A   20298.94249081 +.00000581 +00000-0 +24010-4 0  9992
2 39451 087.7544 241.0163 0004120 086.2599 273.9118 15.21809874369657
1 39451U 13067A   20299.53430158  .00000584  00000-0  24182-4 0  9998
2 39451  87.7544 240.8392 0004116  85.5381 274.6334 15.21810482384319
1 39451U 13067A   20299.92884174 +.00000577 +00000-0 +23861-4 0  9997
2 39451 087.7545 240.7212 0004111 085.1000 275.0714 15.21810985369801
1 39451U 13067A   20300.58640879 +.00000553 +00000-0 +22816-4 0  9997
2 39451 087.7546 240.5245 0004110 084.4046 275.7668 15.21811522369901
1 39451U 13067A   20300.84943545  .00000551  00000-0  22725-4 0  9999
2 39451  87.7546 240.4458 0004107  84.0732 276.0981 15.21811816384512
1 39451U 13067A   20301.57275888 +.00000519 +00000-0 +21287-4 0  9994
2 39451 087.7547 240.2295 0004094 083.1206 277.0505 15.21812280370054
1 39451U 13067A   20301.90154208 +.00000498 +00000-0 +20385-4 0  9997
2 39451 087.7548 240.1312 0004070 082.6579 277.5129 15.21812499370100
1 39451U 13067A   20302.55910858 +.00000590 +00000-0 +24442-4 0  9991
2 39451 087.7548 239.9345 0004066 081.8852 278.2854 15.21813493370201
1 39451U 13067A   20302.82213492  .00000608  00000-0  25220-4 0  9996
2 39451  87.7548 239.8559 0004057  81.5009 278.6697 15.21813864384811
1 39451U 13067A   20303.54545731 +.00000551 +00000-0 +22724-4 0  9993
2 39451 087.7550 239.6395 0004042 080.5816 279.5887 15.21814261370356
1 39451U 13067A   20303.87423990 +.00000589 +00000-0 +24377-4 0  9998
2 39451 087.7550 239.5412 0004028 080.1448 280.0252 15.21814867370407
1 39451U 13067A   20304.20302259 +.00000561 +00000-0 +23159-4 0  9997
2 39451 087.7551 239.4428 0004019 079.8014 280.3685 15.21815086370450
1 39451U 13067A   20304.86058775 +.00000533 +00000-0 +21901-4 0  9992
2 39451 087.7552 239.2462 0004002 079.0083 281.1613 15.21815668370554
1 39451U 13067A   20305.45239589  .00000545  00000-0  22428-4 0  9990
2 39451  87.7553 239.0692 0003976  78.3407 281.8284 15.21816434385211
1 39451U 13067A   20305.58390881 +.00000543 +00000-0 +22346-4 0  9994
2 39451 087.7553 239.0299 0003972 078.1861 281.9829 15.21816561370662
1 39451U 13067A   20305.91269076 +.00000618 +00000-0 +25678-4 0  9996
2 39451 087.7553 238.9316 0003958 077.8543 282.3146 15.21817450370718
1 39451U 13067A   20306.57025489 +.00000616 +00000-0 +25575-4 0  9991
2 39451 087.7554 238.7350 0003946 077.1295 283.0391 15.21818224370810
1 39451U 13067A   20306.89903662 +.00000632 +00000-0 +26274-4 0  9999
2 39451 087.7555 238.6367 0003929 076.7385 283.4298 15.21818743370865
1 39451U 13067A   20307.55660041 +.00000580 +00000-0 +24003-4 0  9994
2 39451 087.7556 238.4401 0003910 076.0268 284.1412 15.21819161370968
1 39451U 13067A   20307.88538209 +.00000575 +00000-0 +23746-4 0  9997
2 39451 087.7557 238.3418 0003894 075.6415 284.5262 15.21819485371019
1 39451U 13067A   20308.21416379 +.00000575 +00000-0 +23751-4 0  9994
2 39451 087.7557 238.2435 0003881 075.2955 284.8721 15.21819816371064
1 39451U 13067A   20308.87172738 +.00000518 +00000-0 +21268-4 0  9992
2 39451 087.7558 238.0470 0003852 074.4975 285.6696 15.21820006371167
1 39451U 13067A   20309.46353420  .00000524  00000-0  21526-4 0  9991
2 39451  87.7559 237.8701 0003832  73.7435 286.4231 15.21820550385829
1 39451U 13067A   20309.59504679 +.00000528 +00000-0 +21681-4 0  9995
2 39451 087.7559 237.8308 0003827 073.6166 286.5500 15.21820680371274
1 39451U 13067A   20309.92382816 +.00000518 +00000-0 +21252-4 0  9992
2 39451 087.7559 237.7325 0003809 073.2220 286.9443 15.21820972371329
1 39451U 13067A   20310.58139075 +.00000524 +00000-0 +21514-4 0  9991
2 39451 087.7560 237.5359 0003778 072.5171 287.6487 15.21821636371423
1 39451U 13067A   20310.77865944  .00000521  00000-0  21379-4 0  9999
2 39451  87.7560 237.4770 0003767  72.3207 287.8450 15.21821849386025
1 39451U 13067A   20311.56773388 +.00000583 +00000-0 +24107-4 0  9997
2 39451 087.7561 237.2411 0003721 071.4023 288.7626 15.21822997371576
1 39451U 13067A   20311.83075855  .00000576  00000-0  23823-4 0  9997
2 39451  87.7561 237.1625 0003704  71.1505 289.0142 15.21823302386186
1 39451U 13067A   20311.89651460 +.00000614 +00000-0 +25466-4 0  9993
2 39451 087.7561 237.1428 0003698 071.1136 289.0510 15.21823610371623
1 39451U 13067A   20312.42256383 +.00000535 +00000-0 +21980-4 0  9997
2 39451 087.7562 236.9855 0003670 070.6031 289.5611 15.21823746371709
1 39451U 13067A   20312.81710055 +.00000512 +00000-0 +20997-4 0  9993
2 39451 087.7562 236.8676 0003643 070.3608 289.8030 15.21824128371765
1 39451U 13067A   20316.10490388 +.00000532 +00000+0 +21854-4 0  9997
2 39451  87.7565 235.8851 0003448  67.0513 293.1096 15.21827259372267
1 39451U 13067A   20316.69670793 +.00000537 +00000+0 +22098-4 0  9997
2 39451  87.7565 235.7083 0003410  66.4036 293.7567 15.21827817372354
1 39451U 13067A   20317.28851149 +.00000554 +00000+0 +22822-4 0  9993
2 39451  87.7566 235.5314 0003370  65.8555 294.3043 15.21828532372445
1 39451U 13067A   20318.60362958 +.00000551 +00000-0 +22704-4 0  9992
2 39451 087.7567 235.1384 0003268 064.8458 295.3126 15.21829993372643
1 39451U 13067A   20319.45845568 +.00000514 +00000-0 +21056-4 0  9997
2 39451 087.7567 234.8830 0003204 064.2343 295.9233 15.21830752372776
1 39451U 13067A   20319.78723476 +.00000534 +00000-0 +21931-4 0  9990
2 39451 087.7567 234.7848 0003171 064.0076 296.1496 15.21831240372821
1 39451U 13067A   20320.57630462 +.00000511 +00000-0 +20928-4 0  9991
2 39451 087.7568 234.5491 0003120 063.3374 296.8191 15.21831835372943
1 39451U 13067A   20320.90508349 +.00000511 +00000-0 +20932-4 0  9991
2 39451 087.7569 234.4509 0003088 063.0366 297.1194 15.21832171372990
1 39451U 13067A   20321.43112993 +.00000484 +00000-0 +19758-4 0  9999
2 39451 087.7569 234.2937 0003053 062.6896 297.4660 15.21832420373076
1 39451U 13067A   20321.75990875  .00000509  00000-0  20831-4 0  9999
2 39451  87.7569 234.1955 0003024  62.3761 297.7791 15.21832831387698
1 39451U 13067A   20322.54897773 +.00000529 +00000-0 +21720-4 0  9990
2 39451 087.7570 233.9597 0002964 061.8837 298.2708 15.21833594373246
1 39451U 13067A   20322.81200058  .00000530  00000-0  21762-4 0  9992
2 39451  87.7570 233.8811 0002941  61.6920 298.4622 15.21833876387852
1 39451U 13067A   20322.87775630 +.00000527 +00000-0 +21659-4 0  9992
2 39451 087.7570 233.8615 0002935 061.6968 298.4573 15.21833915373291
1 39451U 13067A   20323.60106899 +.00000523 +00000-0 +21467-4 0  9992
2 39451 087.7571 233.6454 0002879 061.4020 298.7515 15.21834591373408
1 39451U 13067A   20323.86409161 +.00000527 +00000-0 +21643-4 0  9998
2 39451 087.7571 233.5668 0002855 061.3219 298.8313 15.21834910373443
1 39451U 13067A   20324.12711423  .00000528  00000-0  21693-4 0  9991
2 39451  87.7571 233.4882 0002834  61.2650 298.8880 15.21835182388059
1 39451U 13067A   20324.91618176 +.00000511 +00000-0 +20939-4 0  9993
2 39451 087.7571 233.2525 0002765 060.9610 299.1912 15.21835973373609
1 39451U 13067A   20325.17920415  .00000499  00000-0  20393-4 0  9993
2 39451  87.7571 233.1739 0002741  61.0003 299.1517 15.21836219388215
1 39451U 13067A   20325.31071528 +.00000534 +00000-0 +21927-4 0  9995
2 39451 087.7571 233.1346 0002730 060.9065 299.2454 15.21836565373661
1 39451U 13067A   20325.83675975 +.00000528 +00000-0 +21691-4 0  9999
2 39451 087.7571 232.9775 0002678 060.7769 299.3744 15.21837145373741
1 39451U 13067A   20326.16553768 +.00000538 +00000-0 +22123-4 0  9993
2 39451 087.7572 232.8793 0002655 060.7060 299.4451 15.21837521373799
1 39451U 13067A   20326.42855985  .00000526  00000-0  21574-4 0  9994
2 39451  87.7571 232.8007 0002635  60.6035 299.5473 15.21837731388407
1 39451U 13067A   20326.88884841 +.00000546 +00000-0 +22456-4 0  9999
2 39451 087.7572 232.6632 0002591 060.5169 299.6335 15.21838355373908
1 39451U 13067A   20327.48064789  .00000593  00000-0  24537-4 0  9991
2 39451  87.7571 232.4864 0002542  60.3213 299.8285 15.21839215388566
1 39451U 13067A   20327.61215874 +.00000618 +00000-0 +25648-4 0  9991
2 39451 087.7571 232.4471 0002531 060.2534 299.8963 15.21839520374010
